[{"OBJECT_NAME":"ORBCOMM FM04","OBJECT_ID":"1998-007C","EPOCH":"2026-03-09T14:44:15.821664","MEAN_MOTION":14.35529153,"ECCENTRICITY":0.0038795,"INCLINATION":107.9614,"RA_OF_ASC_NODE":324.5497,"ARG_OF_PERICENTER":142.9338,"MEAN_ANOMALY":217.4493,"EPHEMERIS_TYPE":0,"CLASSIFICATION_TYPE":"U","NORAD_CAT_ID":25159,"ELEMENT_SET_NO":999,"REV_AT_EPOCH":46230,"BSTAR":0.0004125,"MEAN_MOTION_DOT":1.067e-5,"MEAN_MOTION_DDOT":0},{"OBJECT_NAME":"COSMOS 2251 DEB","OBJECT_ID":"1993-036AUZ","EPOCH":"2026-03-07T15:23:24.510624","MEAN_MOTION":14.34204014,"ECCENTRICITY":0.0023108,"INCLINATION":74.0332,"RA_OF_ASC_NODE":156.6345,"ARG_OF_PERICENTER":222.1145,"MEAN_ANOMALY":137.8232,"EPHEMERIS_TYPE":0,"CLASSIFICATION_TYPE":"U","NORAD_CAT_ID":35959,"ELEMENT_SET_NO":999,"REV_AT_EPOCH":86145,"BSTAR":0.00015437,"MEAN_MOTION_DOT":4.08e-6,"MEAN_MOTION_DDOT":0}]
